{
  "type": "FeatureCollection",
  "features": [
    {
      "type": "Feature",
      "properties": {
        "norad_id": 33822,
        "name": "COSMOS 2251 DEB",
        "group": "cosmos-2251-debris",
        "lat": 6.506821970619995,
        "lon": -166.42855946039032,
        "alt_km": 919.4093618021852,
        "timestamp": "2025-12-13T20:38:51.400410+00:00",
        "meta_object_name": "COSMOS 2251 DEB",
        "meta_object_id": "1993-036BP",
        "meta_epoch": "2025-12-13T00:57:47.664000",
        "meta_mean_motion": 14.13072036,
        "meta_eccentricity": 0.01533025,
        "meta_inclination": 74.0697,
        "meta_ra_of_asc_node": 193.152,
        "meta_arg_of_pericenter": 239.422,
        "meta_mean_anomaly": 275.4076,
        "meta_ephemeris_type": 0,
        "meta_classification_type": "U",
        "meta_norad_cat_id": 33822,
        "meta_element_set_no": 999,
        "meta_rev_at_epoch": 86058,
        "meta_bstar": 0.0017854022,
        "meta_mean_motion_dot": 3.704e-05,
        "meta_mean_motion_ddot": 0,
        "tle_line1": "1 33822U 93036BP  25347.04013500  .00003704  00000+0  17854-2 0  9993",
        "tle_line2": "2 33822  74.0697 193.1520 0153302 239.4220 275.4076 14.13072036860585"
      },
      "geometry": {
        "type": "Point",
        "coordinates": [
          -166.42855946039032,
          6.506821970619995
        ]
      }
    },
    {
      "type": "Feature",
      "properties": {
        "norad_id": 33823,
        "name": "COSMOS 2251 DEB",
        "group": "cosmos-2251-debris",
        "lat": 47.954059828104846,
        "lon": -51.42687884188265,
        "alt_km": 1013.3192581906187,
        "timestamp": "2025-12-13T20:38:51.400428+00:00",
        "meta_object_name": "COSMOS 2251 DEB",
        "meta_object_id": "1993-036BQ",
        "meta_epoch": "2025-12-13T05:27:26.025984",
        "meta_mean_motion": 13.98952348,
        "meta_eccentricity": 0.02093365,
        "meta_inclination": 73.8088,
        "meta_ra_of_asc_node": 148.4756,
        "meta_arg_of_pericenter": 273.5568,
        "meta_mean_anomaly": 270.8069,
        "meta_ephemeris_type": 0,
        "meta_classification_type": "U",
        "meta_norad_cat_id": 33823,
        "meta_element_set_no": 999,
        "meta_rev_at_epoch": 85616,
        "meta_bstar": 0.0011314256,
        "meta_mean_motion_dot": 1.944e-05,
        "meta_mean_motion_ddot": 0,
        "tle_line1": "1 33823U 93036BQ  25347.22738456  .00001944  00000+0  11314-2 0  9997",
        "tle_line2": "2 33823  73.8088 148.4756 0209336 273.5568 270.8069 13.98952348856169"
      },
      "geometry": {
        "type": "Point",
        "coordinates": [
          -51.42687884188265,
          47.954059828104846
        ]
      }
    },
    {
      "type": "Feature",
      "properties": {
        "norad_id": 33825,
        "name": "COSMOS 2251 DEB",
        "group": "cosmos-2251-debris",
        "lat": 64.0784391385321,
        "lon": 61.83452781220547,
        "alt_km": 641.312658675517,
        "timestamp": "2025-12-13T20:38:51.400439+00:00",
        "meta_object_name": "COSMOS 2251 DEB",
        "meta_object_id": "1993-036BS",
        "meta_epoch": "2025-12-13T05:56:51.138240",
        "meta_mean_motion": 14.69772573,
        "meta_eccentricity": 0.00845542,
        "meta_inclination": 73.9856,
        "meta_ra_of_asc_node": 26.8028,
        "meta_arg_of_pericenter": 353.706,
        "meta_mean_anomaly": 75.2038,
        "meta_ephemeris_type": 0,
        "meta_classification_type": "U",
        "meta_norad_cat_id": 33825,
        "meta_element_set_no": 999,
        "meta_rev_at_epoch": 88887,
        "meta_bstar": 0.0011696354,
        "meta_mean_motion_dot": 7.347e-05,
        "meta_mean_motion_ddot": 0,
        "tle_line1": "1 33825U 93036BS  25347.24781410  .00007347  00000+0  11696-2 0  9995",
        "tle_line2": "2 33825  73.9856  26.8028 0084554 353.7060  75.2038 14.69772573888872"
      },
      "geometry": {
        "type": "Point",
        "coordinates": [
          61.83452781220547,
          64.0784391385321
        ]
      }
    },
    {
      "type": "Feature",
      "properties": {
        "norad_id": 33826,
        "name": "COSMOS 2251 DEB",
        "group": "cosmos-2251-debris",
        "lat": -61.44371061890372,
        "lon": -100.5644171138351,
        "alt_km": 779.7983412622289,
        "timestamp": "2025-12-13T20:38:51.400450+00:00",
        "meta_object_name": "COSMOS 2251 DEB",
        "meta_object_id": "1993-036BT",
        "meta_epoch": "2025-12-13T06:35:14.400672",
        "meta_mean_motion": 14.51726798,
        "meta_eccentricity": 0.00831197,
        "meta_inclination": 74.0652,
        "meta_ra_of_asc_node": 48.8705,
        "meta_arg_of_pericenter": 93.0732,
        "meta_mean_anomaly": 331.9417,
        "meta_ephemeris_type": 0,
        "meta_classification_type": "U",
        "meta_norad_cat_id": 33826,
        "meta_element_set_no": 999,
        "meta_rev_at_epoch": 87777,
        "meta_bstar": 0.001553946,
        "meta_mean_motion_dot": 6.506e-05,
        "meta_mean_motion_ddot": 0,
        "tle_line1": "1 33826U 93036BT  25347.27447223  .00006506  00000+0  15539-2 0  9996",
        "tle_line2": "2 33826  74.0652  48.8705 0083119  93.0732 331.9417 14.51726798877770"
      },
      "geometry": {
        "type": "Point",
        "coordinates": [
          -100.5644171138351,
          -61.44371061890372
        ]
      }
    },
    {
      "type": "Feature",
      "properties": {
        "norad_id": 33828,
        "name": "COSMOS 2251 DEB",
        "group": "cosmos-2251-debris",
        "lat": 62.676660785405254,
        "lon": 22.388589415751966,
        "alt_km": 757.8758773687905,
        "timestamp": "2025-12-13T20:38:51.400461+00:00",
        "meta_object_name": "COSMOS 2251 DEB",
        "meta_object_id": "1993-036BV",
        "meta_epoch": "2025-12-13T04:03:27.332640",
        "meta_mean_motion": 14.44335808,
        "meta_eccentricity": 0.002946,
        "meta_inclination": 74.0467,
        "meta_ra_of_asc_node": 237.2918,
        "meta_arg_of_pericenter": 310.1661,
        "meta_mean_anomaly": 169.3912,
        "meta_ephemeris_type": 0,
        "meta_classification_type": "U",
        "meta_norad_cat_id": 33828,
        "meta_element_set_no": 999,
        "meta_rev_at_epoch": 88319,
        "meta_bstar": 0.00072397325,
        "meta_mean_motion_dot": 2.479e-05,
        "meta_mean_motion_ddot": 0,
        "tle_line1": "1 33828U 93036BV  25347.16906635  .00002479  00000+0  72397-3 0  9994",
        "tle_line2": "2 33828  74.0467 237.2918 0029460 310.1661 169.3912 14.44335808883195"
      },
      "geometry": {
        "type": "Point",
        "coordinates": [
          22.388589415751966,
          62.676660785405254
        ]
      }
    },
    {
      "type": "Feature",
      "properties": {
        "norad_id": 33830,
        "name": "COSMOS 2251 DEB",
        "group": "cosmos-2251-debris",
        "lat": 57.23148589144849,
        "lon": 21.75695053092039,
        "alt_km": 652.6282101549814,
        "timestamp": "2025-12-13T20:38:51.400472+00:00",
        "meta_object_name": "COSMOS 2251 DEB",
        "meta_object_id": "1993-036BX",
        "meta_epoch": "2025-12-13T02:29:55.258656",
        "meta_mean_motion": 14.76907731,
        "meta_eccentricity": 0.00423854,
        "meta_inclination": 74.0322,
        "meta_ra_of_asc_node": 229.6516,
        "meta_arg_of_pericenter": 349.6863,
        "meta_mean_anomaly": 69.9049,
        "meta_ephemeris_type": 0,
        "meta_classification_type": "U",
        "meta_norad_cat_id": 33830,
        "meta_element_set_no": 999,
        "meta_rev_at_epoch": 89477,
        "meta_bstar": 0.0013357287,
        "meta_mean_motion_dot": 9.514e-05,
        "meta_mean_motion_ddot": 0,
        "tle_line1": "1 33830U 93036BX  25347.10411179  .00009514  00000+0  13357-2 0  9992",
        "tle_line2": "2 33830  74.0322 229.6516 0042385 349.6863  69.9049 14.76907731894776"
      },
      "geometry": {
        "type": "Point",
        "coordinates": [
          21.75695053092039,
          57.23148589144849
        ]
      }
    },
    {
      "type": "Feature",
      "properties": {
        "norad_id": 33832,
        "name": "COSMOS 2251 DEB",
        "group": "cosmos-2251-debris",
        "lat": 69.46977215074139,
        "lon": -21.93495311971464,
        "alt_km": 696.4315649124001,
        "timestamp": "2025-12-13T20:38:51.400482+00:00",
        "meta_object_name": "COSMOS 2251 DEB",
        "meta_object_id": "1993-036BZ",
        "meta_epoch": "2025-12-13T01:00:32.813280",
        "meta_mean_motion": 14.60654035,
        "meta_eccentricity": 0.00248212,
        "meta_inclination": 74.0541,
        "meta_ra_of_asc_node": 209.3977,
        "meta_arg_of_pericenter": 240.4066,
        "meta_mean_anomaly": 241.8525,
        "meta_ephemeris_type": 0,
        "meta_classification_type": "U",
        "meta_norad_cat_id": 33832,
        "meta_element_set_no": 999,
        "meta_rev_at_epoch": 88429,
        "meta_bstar": 0.0018971978,
        "meta_mean_motion_dot": 9.258e-05,
        "meta_mean_motion_ddot": 0,
        "tle_line1": "1 33832U 93036BZ  25347.04204645  .00009258  00000+0  18972-2 0  9998",
        "tle_line2": "2 33832  74.0541 209.3977 0024821 240.4066 241.8525 14.60654035884290"
      },
      "geometry": {
        "type": "Point",
        "coordinates": [
          -21.93495311971464,
          69.46977215074139
        ]
      }
    }
  ]
}